[{"OBJECT_NAME":"STARLINK-3107","OBJECT_ID":"2021-082AT","EPOCH":"2026-03-09T21:59:27.140640","MEAN_MOTION":15.10504087,"ECCENTRICITY":0.00073375,"INCLINATION":69.9932,"RA_OF_ASC_NODE":287.3824,"ARG_OF_PERICENTER":250.2407,"MEAN_ANOMALY":109.7967,"EPHEMERIS_TYPE":0,"CLASSIFICATION_TYPE":"U","NORAD_CAT_ID":49171,"ELEMENT_SET_NO":999,"REV_AT_EPOCH":24733,"BSTAR":0.001517345,"MEAN_MOTION_DOT":0.00025048,"MEAN_MOTION_DDOT":0},{"OBJECT_NAME":"STARLINK-4056","OBJECT_ID":"2022-086A","EPOCH":"2026-03-09T15:17:53.225376","MEAN_MOTION":15.08832297,"ECCENTRICITY":0.0001347,"INCLINATION":53.2172,"RA_OF_ASC_NODE":199.3467,"ARG_OF_PERICENTER":75.1377,"MEAN_ANOMALY":284.9764,"EPHEMERIS_TYPE":0,"CLASSIFICATION_TYPE":"U","NORAD_CAT_ID":53242,"ELEMENT_SET_NO":999,"REV_AT_EPOCH":20130,"BSTAR":3.5912e-5,"MEAN_MOTION_DOT":2.84e-6,"MEAN_MOTION_DDOT":0}]
